ONEWEB-0273             
1 48991U 21060AA  23248.51528025  .00000053  00000+0  10540-3 0  9997
2 48991  87.8982  70.9422 0001966  90.9682 269.1674 13.16595535107247
ONEWEB-0274             
1 48992U 21060AB  23247.85664124  .00000036  00000+0  60326-4 0  9994
2 48992  87.8981  71.0774 0002016  95.8018 264.3343 13.16595085107197
ONEWEB-0275             
1 48993U 21060AC  23247.77009337 -.00000018  00000+0 -80393-4 0  9993
2 48993  87.8983  71.0983 0001837  88.1047 272.0294 13.16589813107103
ONEWEB-0276             
1 48994U 21060AD  23247.27188855  .00000109  00000+0  25165-3 0  9996
2 48994  87.9072  71.1800 0002156  94.4663 265.6714 13.16592628105765
ONEWEB-0277             
1 48995U 21060AE  23247.96853490  .00000105  00000+0  24059-3 0  9994
2 48995  87.9097  71.0467 0002215 101.1122 259.0258 13.16595106107130
ONEWEB-0278             
1 48996U 21060AF  23247.80597849  .00000062  00000+0  12874-3 0  9995
2 48996  87.8982  71.0740 0001775  76.1837 283.9492 13.16595656107261
ONEWEB-0279             
1 48997U 21060AG  23247.81442925  .00000089  00000+0  19933-3 0  9993
2 48997  87.8979  71.0700 0001757  90.9188 269.2144 13.16596633107185
ONEWEB-0280             
1 48998U 21060AH  23248.43718111  .00000060  00000+0  12354-3 0  9995
2 48998  87.8974  70.9454 0002343 105.6921 254.4468 13.16593322107194
